{
    "name": "Mercury",
    "radius": 2439.4,
    "rotation_factor": 6.1385108,
    "model_path": "res://content/scenes/model_scenes/mercury.tscn",
    "central_body": "Sun",
    "semimajor_axis": 57909226.54152,
    "eccentricity": 0.20563593,
    "argument_periapsis": 29.12703035,
    "mean_anomaly": 174.79252722,
    "inclination": 7.00497902,
    "lon_ascending_node": 48.33076593,
    "orbital_period": 87.9090455,
    "info_points": [],
    "satellites": [] 
}